LANDSAT 9               
1 49260U 21088A   23303.92240132  .00000823  00000+0  19274-3 0  9992
2 49260  98.2167  12.0986 0001079  95.2686 264.8636 14.57128455111162
